STARLINK-31759          
1 59740U 24090L   26068.34447959  .00000510  00000+0  28101-4 0  9998
2 59740  43.0006 185.7591 0002695 291.1394  68.9169 15.27570206103386
STARLINK-36554          
1 67502U 26012K   26067.71268370  .00032833  00000+0  11969-2 0  9992
2 67502  42.9934 319.8184 0000695 339.2059  20.8765 15.27591469  7619
